{
  "type": "FeatureCollection",
  "features": [
    {
      "type": "Feature",
      "properties": {
        "norad_id": 28890,
        "name": "BEIJING 1",
        "group": "dmc",
        "lat": 40.71889941697956,
        "lon": 121.0778626530212,
        "alt_km": 673.2781093234562,
        "timestamp": "2025-12-26T17:24:54.384485+00:00",
        "meta_object_name": "BEIJING 1",
        "meta_object_id": "2005-043A",
        "meta_epoch": "2025-12-26T07:22:52.651776",
        "meta_mean_motion": 14.63377599,
        "meta_eccentricity": 0.00158514,
        "meta_inclination": 98.2665,
        "meta_ra_of_asc_node": 127.8473,
        "meta_arg_of_pericenter": 101.5455,
        "meta_mean_anomaly": 258.7527,
        "meta_ephemeris_type": 0,
        "meta_classification_type": "U",
        "meta_norad_cat_id": 28890,
        "meta_element_set_no": 999,
        "meta_rev_at_epoch": 7536,
        "meta_bstar": 5.2674571e-05,
        "meta_mean_motion_dot": 2.24e-06,
        "meta_mean_motion_ddot": 0,
        "tle_line1": "1 28890U 05043A   25360.30755384  .00000224  00000+0  52675-4 0  9996",
        "tle_line2": "2 28890  98.2665 127.8473 0015851 101.5455 258.7527 14.63377599 75369"
      },
      "geometry": {
        "type": "Point",
        "coordinates": [
          121.0778626530212,
          40.71889941697956
        ]
      }
    },
    {
      "type": "Feature",
      "properties": {
        "norad_id": 33320,
        "name": "HUANJING 1A (HJ-1A)",
        "group": "dmc",
        "lat": -4.17934302243711,
        "lon": -10.996161429223477,
        "alt_km": 608.7613391864988,
        "timestamp": "2025-12-26T17:24:54.384513+00:00",
        "meta_object_name": "HUANJING 1A (HJ-1A)",
        "meta_object_id": "2008-041A",
        "meta_epoch": "2025-12-26T06:06:07.221600",
        "meta_mean_motion": 14.83436168,
        "meta_eccentricity": 0.0019111,
        "meta_inclination": 97.6552,
        "meta_ra_of_asc_node": 347.9889,
        "meta_arg_of_pericenter": 351.1471,
        "meta_mean_anomaly": 8.9404,
        "meta_ephemeris_type": 0,
        "meta_classification_type": "U",
        "meta_norad_cat_id": 33320,
        "meta_element_set_no": 999,
        "meta_rev_at_epoch": 93276,
        "meta_bstar": 0.00024534341,
        "meta_mean_motion_dot": 1.97e-05,
        "meta_mean_motion_ddot": 0,
        "tle_line1": "1 33320U 08041A   25360.25425025  .00001970  00000+0  24534-3 0  9992",
        "tle_line2": "2 33320  97.6552 347.9889 0019111 351.1471   8.9404 14.83436168932766"
      },
      "geometry": {
        "type": "Point",
        "coordinates": [
          -10.996161429223477,
          -4.17934302243711
        ]
      }
    },
    {
      "type": "Feature",
      "properties": {
        "norad_id": 33321,
        "name": "HUANJING 1B (HJ-1B)",
        "group": "dmc",
        "lat": -8.208247240909238,
        "lon": 170.99140782396555,
        "alt_km": 648.5574126269685,
        "timestamp": "2025-12-26T17:24:54.384528+00:00",
        "meta_object_name": "HUANJING 1B (HJ-1B)",
        "meta_object_id": "2008-041B",
        "meta_epoch": "2025-12-26T06:51:14.700384",
        "meta_mean_motion": 14.8285969,
        "meta_eccentricity": 0.00376757,
        "meta_inclination": 97.6411,
        "meta_ra_of_asc_node": 351.6804,
        "meta_arg_of_pericenter": 32.8549,
        "meta_mean_anomaly": 327.4997,
        "meta_ephemeris_type": 0,
        "meta_classification_type": "U",
        "meta_norad_cat_id": 33321,
        "meta_element_set_no": 999,
        "meta_rev_at_epoch": 93278,
        "meta_bstar": 0.00028283849,
        "meta_mean_motion_dot": 2.267e-05,
        "meta_mean_motion_ddot": 0,
        "tle_line1": "1 33321U 08041B   25360.28558681  .00002267  00000+0  28284-3 0  9997",
        "tle_line2": "2 33321  97.6411 351.6804 0037675  32.8549 327.4997 14.82859690932780"
      },
      "geometry": {
        "type": "Point",
        "coordinates": [
          170.99140782396555,
          -8.208247240909238
        ]
      }
    },
    {
      "type": "Feature",
      "properties": {
        "norad_id": 33446,
        "name": "YAOGAN-4",
        "group": "dmc",
        "lat": 81.50493287773234,
        "lon": 179.43901948022872,
        "alt_km": 622.3624982468773,
        "timestamp": "2025-12-26T17:24:54.384540+00:00",
        "meta_object_name": "YAOGAN-4",
        "meta_object_id": "2008-061A",
        "meta_epoch": "2025-12-26T05:39:31.954464",
        "meta_mean_motion": 14.82721305,
        "meta_eccentricity": 0.00129545,
        "meta_inclination": 97.9198,
        "meta_ra_of_asc_node": 290.2038,
        "meta_arg_of_pericenter": 275.3518,
        "meta_mean_anomaly": 84.6217,
        "meta_ephemeris_type": 0,
        "meta_classification_type": "U",
        "meta_norad_cat_id": 33446,
        "meta_element_set_no": 999,
        "meta_rev_at_epoch": 92003,
        "meta_bstar": 0.00018765921,
        "meta_mean_motion_dot": 1.463e-05,
        "meta_mean_motion_ddot": 0,
        "tle_line1": "1 33446U 08061A   25360.23578651  .00001463  00000+0  18766-3 0  9992",
        "tle_line2": "2 33446  97.9198 290.2038 0012954 275.3518  84.6217 14.82721305920036"
      },
      "geometry": {
        "type": "Point",
        "coordinates": [
          179.43901948022872,
          81.50493287773234
        ]
      }
    },
    {
      "type": "Feature",
      "properties": {
        "norad_id": 35681,
        "name": "DEIMOS-1",
        "group": "dmc",
        "lat": -13.530162189021468,
        "lon": -21.191056726309416,
        "alt_km": 651.062169981622,
        "timestamp": "2025-12-26T17:24:54.384552+00:00",
        "meta_object_name": "DEIMOS-1",
        "meta_object_id": "2009-041A",
        "meta_epoch": "2025-12-26T06:46:18.197184",
        "meta_mean_motion": 14.74972651,
        "meta_eccentricity": 0.00024348,
        "meta_inclination": 97.7158,
        "meta_ra_of_asc_node": 160.2558,
        "meta_arg_of_pericenter": 59.0928,
        "meta_mean_anomaly": 301.052,
        "meta_ephemeris_type": 0,
        "meta_classification_type": "U",
        "meta_norad_cat_id": 35681,
        "meta_element_set_no": 999,
        "meta_rev_at_epoch": 88139,
        "meta_bstar": 0.00013174174,
        "meta_mean_motion_dot": 8.38e-06,
        "meta_mean_motion_ddot": 0,
        "tle_line1": "1 35681U 09041A   25360.28215506  .00000838  00000+0  13174-3 0  9999",
        "tle_line2": "2 35681  97.7158 160.2558 0002434  59.0928 301.0520 14.74972651881391"
      },
      "geometry": {
        "type": "Point",
        "coordinates": [
          -21.191056726309416,
          -13.530162189021468
        ]
      }
    },
    {
      "type": "Feature",
      "properties": {
        "norad_id": 35683,
        "name": "UK-DMC 2",
        "group": "dmc",
        "lat": -61.65042619300294,
        "lon": -59.595098148451484,
        "alt_km": 651.22789009802,
        "timestamp": "2025-12-26T17:24:54.384563+00:00",
        "meta_object_name": "UK-DMC 2",
        "meta_object_id": "2009-041C",
        "meta_epoch": "2025-12-26T08:10:55.494048",
        "meta_mean_motion": 14.75650082,
        "meta_eccentricity": 0.00015732,
        "meta_inclination": 97.8574,
        "meta_ra_of_asc_node": 134.8605,
        "meta_arg_of_pericenter": 93.107,
        "meta_mean_anomaly": 267.032,
        "meta_ephemeris_type": 0,
        "meta_classification_type": "U",
        "meta_norad_cat_id": 35683,
        "meta_element_set_no": 999,
        "meta_rev_at_epoch": 88107,
        "meta_bstar": 0.00017436691,
        "meta_mean_motion_dot": 1.142e-05,
        "meta_mean_motion_ddot": 0,
        "tle_line1": "1 35683U 09041C   25360.34092007  .00001142  00000+0  17437-3 0  9992",
        "tle_line2": "2 35683  97.8574 134.8605 0001573  93.1070 267.0320 14.75650082881072"
      },
      "geometry": {
        "type": "Point",
        "coordinates": [
          -59.595098148451484,
          -61.65042619300294
        ]
      }
    },
    {
      "type": "Feature",
      "properties": {
        "norad_id": 40715,
        "name": "DMC3-FM1",
        "group": "dmc",
        "lat": 63.75341575020015,
        "lon": -148.4491371275922,
        "alt_km": 608.6493712019483,
        "timestamp": "2025-12-26T17:24:54.384574+00:00",
        "meta_object_name": "DMC3-FM1",
        "meta_object_id": "2015-032A",
        "meta_epoch": "2025-12-26T05:48:27.412416",
        "meta_mean_motion": 14.85461598,
        "meta_eccentricity": 0.00040899,
        "meta_inclination": 97.6678,
        "meta_ra_of_asc_node": 226.9419,
        "meta_arg_of_pericenter": 264.4871,
        "meta_mean_anomaly": 95.5878,
        "meta_ephemeris_type": 0,
        "meta_classification_type": "U",
        "meta_norad_cat_id": 40715,
        "meta_element_set_no": 999,
        "meta_rev_at_epoch": 56423,
        "meta_bstar": 8.1090809e-05,
        "meta_mean_motion_dot": 6.48e-06,
        "meta_mean_motion_ddot": 0,
        "tle_line1": "1 40715U 15032A   25360.24198394  .00000648  00000+0  81091-4 0  9994",
        "tle_line2": "2 40715  97.6678 226.9419 0004089 264.4871  95.5878 14.85461598564231"
      },
      "geometry": {
        "type": "Point",
        "coordinates": [
          -148.4491371275922,
          63.75341575020015
        ]
      }
    },
    {
      "type": "Feature",
      "properties": {
        "norad_id": 40716,
        "name": "DMC3-FM2",
        "group": "dmc",
        "lat": -54.5880785717216,
        "lon": -120.20677212818138,
        "alt_km": 616.556335862474,
        "timestamp": "2025-12-26T17:24:54.384584+00:00",
        "meta_object_name": "DMC3-FM2",
        "meta_object_id": "2015-032B",
        "meta_epoch": "2025-12-26T06:20:49.590240",
        "meta_mean_motion": 14.85465261,
        "meta_eccentricity": 0.00045653,
        "meta_inclination": 97.6735,
        "meta_ra_of_asc_node": 228.4173,
        "meta_arg_of_pericenter": 271.1833,
        "meta_mean_anomaly": 88.8859,
        "meta_ephemeris_type": 0,
        "meta_classification_type": "U",
        "meta_norad_cat_id": 40716,
        "meta_element_set_no": 999,
        "meta_rev_at_epoch": 56423,
        "meta_bstar": 0.00014385058,
        "meta_mean_motion_dot": 1.189e-05,
        "meta_mean_motion_ddot": 0,
        "tle_line1": "1 40716U 15032B   25360.26446285  .00001189  00000+0  14385-3 0  9994",
        "tle_line2": "2 40716  97.6735 228.4173 0004565 271.1833  88.8859 14.85465261564237"
      },
      "geometry": {
        "type": "Point",
        "coordinates": [
          -120.20677212818138,
          -54.5880785717216
        ]
      }
    },
    {
      "type": "Feature",
      "properties": {
        "norad_id": 40717,
        "name": "DMC3-FM3",
        "group": "dmc",
        "lat": -8.497719403615019,
        "lon": 49.34898735253554,
        "alt_km": 615.9168787178596,
        "timestamp": "2025-12-26T17:24:54.384594+00:00",
        "meta_object_name": "DMC3-FM3",
        "meta_object_id": "2015-032C",
        "meta_epoch": "2025-12-26T06:52:08.297760",
        "meta_mean_motion": 14.85451084,
        "meta_eccentricity": 0.00038582,
        "meta_inclination": 97.6793,
        "meta_ra_of_asc_node": 230.0803,
        "meta_arg_of_pericenter": 273.0434,
        "meta_mean_anomaly": 87.034,
        "meta_ephemeris_type": 0,
        "meta_classification_type": "U",
        "meta_norad_cat_id": 40717,
        "meta_element_set_no": 999,
        "meta_rev_at_epoch": 56424,
        "meta_bstar": 0.00012067082,
        "meta_mean_motion_dot": 9.89e-06,
        "meta_mean_motion_ddot": 0,
        "tle_line1": "1 40717U 15032C   25360.28620715  .00000989  00000+0  12067-3 0  9991",
        "tle_line2": "2 40717  97.6793 230.0803 0003858 273.0434  87.0340 14.85451084564248"
      },
      "geometry": {
        "type": "Point",
        "coordinates": [
          49.34898735253554,
          -8.497719403615019
        ]
      }
    }
  ]
}